{
  "type": "FeatureCollection",
  "features": [
    {
      "type": "Feature",
      "properties": {
        "norad_id": 30552,
        "name": "FENGYUN 1C DEB",
        "group": "fengyun-1c-debris",
        "lat": -20.53148158701153,
        "lon": 110.68949852752824,
        "alt_km": 711.6926657273852,
        "timestamp": "2025-12-02T06:27:53.290694+00:00",
        "meta_object_name": "FENGYUN 1C DEB",
        "meta_object_id": "1999-025AKS",
        "meta_epoch": "2025-12-01T07:26:33.160128",
        "meta_mean_motion": 14.54267346,
        "meta_eccentricity": 0.00141104,
        "meta_inclination": 98.8343,
        "meta_ra_of_asc_node": 106.3383,
        "meta_arg_of_pericenter": 283.1006,
        "meta_mean_anomaly": 76.8614,
        "meta_ephemeris_type": 0,
        "meta_classification_type": "U",
        "meta_norad_cat_id": 30552,
        "meta_element_set_no": 999,
        "meta_rev_at_epoch": 97486,
        "meta_bstar": 0.0041320011,
        "meta_mean_motion_dot": 0.00017533,
        "meta_mean_motion_ddot": 0,
        "tle_line1": "1 30552U 99025AKS 25335.31010602  .00017533  00000+0  41320-2 0  9991",
        "tle_line2": "2 30552  98.8343 106.3383 0014110 283.1006  76.8614 14.54267346974861"
      },
      "geometry": {
        "type": "Point",
        "coordinates": [
          110.68949852752824,
          -20.53148158701153
        ]
      }
    },
    {
      "type": "Feature",
      "properties": {
        "norad_id": 30553,
        "name": "FENGYUN 1C DEB",
        "group": "fengyun-1c-debris",
        "lat": 75.81140464196784,
        "lon": -70.61312539207421,
        "alt_km": 646.3307254866304,
        "timestamp": "2025-12-02T06:27:53.290705+00:00",
        "meta_object_name": "FENGYUN 1C DEB",
        "meta_object_id": "1999-025AKT",
        "meta_epoch": "2025-12-01T18:35:00.563712",
        "meta_mean_motion": 14.7151831,
        "meta_eccentricity": 0.0022016,
        "meta_inclination": 99.1296,
        "meta_ra_of_asc_node": 69.3341,
        "meta_arg_of_pericenter": 182.8154,
        "meta_mean_anomaly": 177.2929,
        "meta_ephemeris_type": 0,
        "meta_classification_type": "U",
        "meta_norad_cat_id": 30553,
        "meta_element_set_no": 999,
        "meta_rev_at_epoch": 98312,
        "meta_bstar": 0.0031293,
        "meta_mean_motion_dot": 0.00019491,
        "meta_mean_motion_ddot": 0,
        "tle_line1": "1 30553U 99025AKT 25335.77431208  .00019491  00000+0  31293-2 0  9994",
        "tle_line2": "2 30553  99.1296  69.3341 0022016 182.8154 177.2929 14.71518310983121"
      },
      "geometry": {
        "type": "Point",
        "coordinates": [
          -70.61312539207421,
          75.81140464196784
        ]
      }
    },
    {
      "type": "Feature",
      "properties": {
        "norad_id": 30555,
        "name": "FENGYUN 1C DEB",
        "group": "fengyun-1c-debris",
        "lat": 14.511090716560815,
        "lon": 27.605069707750378,
        "alt_km": 814.6209646026628,
        "timestamp": "2025-12-02T06:27:53.290715+00:00",
        "meta_object_name": "FENGYUN 1C DEB",
        "meta_object_id": "1999-025AKV",
        "meta_epoch": "2025-12-01T15:48:10.198368",
        "meta_mean_motion": 14.20705161,
        "meta_eccentricity": 0.00419845,
        "meta_inclination": 98.7588,
        "meta_ra_of_asc_node": 29.2867,
        "meta_arg_of_pericenter": 304.0062,
        "meta_mean_anomaly": 187.5374,
        "meta_ephemeris_type": 0,
        "meta_classification_type": "U",
        "meta_norad_cat_id": 30555,
        "meta_element_set_no": 999,
        "meta_rev_at_epoch": 96778,
        "meta_bstar": 0.0013721512,
        "meta_mean_motion_dot": 2.94e-05,
        "meta_mean_motion_ddot": 0,
        "tle_line1": "1 30555U 99025AKV 25335.65845137  .00002940  00000+0  13722-2 0  9991",
        "tle_line2": "2 30555  98.7588  29.2867 0041984 304.0062 187.5374 14.20705161967789"
      },
      "geometry": {
        "type": "Point",
        "coordinates": [
          27.605069707750378,
          14.511090716560815
        ]
      }
    },
    {
      "type": "Feature",
      "properties": {
        "norad_id": 30556,
        "name": "FENGYUN 1C DEB",
        "group": "fengyun-1c-debris",
        "lat": 9.9195623892022,
        "lon": 151.46946683782633,
        "alt_km": 896.6262734412721,
        "timestamp": "2025-12-02T06:27:53.290724+00:00",
        "meta_object_name": "FENGYUN 1C DEB",
        "meta_object_id": "1999-025AKW",
        "meta_epoch": "2025-12-01T18:30:31.395744",
        "meta_mean_motion": 14.01351193,
        "meta_eccentricity": 0.0067692,
        "meta_inclination": 98.7819,
        "meta_ra_of_asc_node": 329.4411,
        "meta_arg_of_pericenter": 268.6252,
        "meta_mean_anomaly": 270.1809,
        "meta_ephemeris_type": 0,
        "meta_classification_type": "U",
        "meta_norad_cat_id": 30556,
        "meta_element_set_no": 999,
        "meta_rev_at_epoch": 96103,
        "meta_bstar": 0.00027874,
        "meta_mean_motion_dot": 3.86e-06,
        "meta_mean_motion_ddot": 0,
        "tle_line1": "1 30556U 99025AKW 25335.77119671  .00000386  00000+0  27874-3 0  9998",
        "tle_line2": "2 30556  98.7819 329.4411 0067692 268.6252 270.1809 14.01351193961032"
      },
      "geometry": {
        "type": "Point",
        "coordinates": [
          151.46946683782633,
          9.9195623892022
        ]
      }
    },
    {
      "type": "Feature",
      "properties": {
        "norad_id": 30557,
        "name": "FENGYUN 1C DEB",
        "group": "fengyun-1c-debris",
        "lat": -57.58807042443566,
        "lon": 55.827263675361486,
        "alt_km": 826.0923526393781,
        "timestamp": "2025-12-02T06:27:53.290734+00:00",
        "meta_object_name": "FENGYUN 1C DEB",
        "meta_object_id": "1999-025AKX",
        "meta_epoch": "2025-12-01T03:30:21.120192",
        "meta_mean_motion": 14.10707054,
        "meta_eccentricity": 0.00674419,
        "meta_inclination": 98.9215,
        "meta_ra_of_asc_node": 40.3884,
        "meta_arg_of_pericenter": 265.2043,
        "meta_mean_anomaly": 94.1424,
        "meta_ephemeris_type": 0,
        "meta_classification_type": "U",
        "meta_norad_cat_id": 30557,
        "meta_element_set_no": 999,
        "meta_rev_at_epoch": 96137,
        "meta_bstar": 0.0014640181,
        "meta_mean_motion_dot": 2.628e-05,
        "meta_mean_motion_ddot": 0,
        "tle_line1": "1 30557U 99025AKX 25335.14607778  .00002628  00000+0  14640-2 0  9997",
        "tle_line2": "2 30557  98.9215  40.3884 0067441 265.2043  94.1424 14.10707054961376"
      },
      "geometry": {
        "type": "Point",
        "coordinates": [
          55.827263675361486,
          -57.58807042443566
        ]
      }
    },
    {
      "type": "Feature",
      "properties": {
        "norad_id": 30558,
        "name": "FENGYUN 1C DEB",
        "group": "fengyun-1c-debris",
        "lat": -57.555940067904785,
        "lon": -77.15343391700758,
        "alt_km": 989.2462266295852,
        "timestamp": "2025-12-02T06:27:53.290745+00:00",
        "meta_object_name": "FENGYUN 1C DEB",
        "meta_object_id": "1999-025AKY",
        "meta_epoch": "2025-11-30T15:16:00.558048",
        "meta_mean_motion": 13.28421345,
        "meta_eccentricity": 0.042304,
        "meta_inclination": 99.467,
        "meta_ra_of_asc_node": 116.5631,
        "meta_arg_of_pericenter": 302.4359,
        "meta_mean_anomaly": 53.651,
        "meta_ephemeris_type": 0,
        "meta_classification_type": "U",
        "meta_norad_cat_id": 30558,
        "meta_element_set_no": 999,
        "meta_rev_at_epoch": 90597,
        "meta_bstar": 0.0035398,
        "meta_mean_motion_dot": 2.593e-05,
        "meta_mean_motion_ddot": 0,
        "tle_line1": "1 30558U 99025AKY 25334.63611757  .00002593  00000+0  35398-2 0  9997",
        "tle_line2": "2 30558  99.4670 116.5631 0423040 302.4359  53.6510 13.28421345905973"
      },
      "geometry": {
        "type": "Point",
        "coordinates": [
          -77.15343391700758,
          -57.555940067904785
        ]
      }
    },
    {
      "type": "Feature",
      "properties": {
        "norad_id": 30560,
        "name": "FENGYUN 1C DEB",
        "group": "fengyun-1c-debris",
        "lat": 2.839710119793078,
        "lon": 150.71078679527665,
        "alt_km": 802.3272322630637,
        "timestamp": "2025-12-02T06:27:53.290755+00:00",
        "meta_object_name": "FENGYUN 1C DEB",
        "meta_object_id": "1999-025ALA",
        "meta_epoch": "2025-12-01T20:01:41.181024",
        "meta_mean_motion": 14.1700557,
        "meta_eccentricity": 0.0114537,
        "meta_inclination": 98.6633,
        "meta_ra_of_asc_node": 329.8538,
        "meta_arg_of_pericenter": 243.2548,
        "meta_mean_anomaly": 237.86,
        "meta_ephemeris_type": 0,
        "meta_classification_type": "U",
        "meta_norad_cat_id": 30560,
        "meta_element_set_no": 999,
        "meta_rev_at_epoch": 97214,
        "meta_bstar": 0.0003195,
        "meta_mean_motion_dot": 6.41e-06,
        "meta_mean_motion_ddot": 0,
        "tle_line1": "1 30560U 99025ALA 25335.83450441  .00000641  00000+0  31950-3 0  9997",
        "tle_line2": "2 30560  98.6633 329.8538 0114537 243.2548 237.8600 14.17005570972147"
      },
      "geometry": {
        "type": "Point",
        "coordinates": [
          150.71078679527665,
          2.839710119793078
        ]
      }
    }
  ]
}